AAUSAT 4                
1 41460U 16025E   21311.41159802  .00008819  00000-0  39822-3 0  9990
2 41460  98.1604 101.0428 0141966 282.0349  76.4961 15.12597923304314
BEESAT-4                
1 41619U 16040W   21310.43212443  .00006769  00000-0  26155-3 0  9992
2 41619  97.2518   2.4828 0010356 179.7301 180.3946 15.26513376286660
CANX-7                  
1 41788U 16059F   21311.58000244  .00058956  00000-0  56356-2 0  9990
2 41788  98.2484  62.6606 0020059 101.7512 258.5427 14.92829474275168
RAVAN                   
1 41849U 16067B   21311.36337708  .00002255  00000-0  18945-3 0  9995
2 41849  97.9807  77.4542 0006540   4.9692 355.1594 14.99362716272700
CELTEE 1                
1 41850U 16067C   21311.34090371  .00001089  00000-0  98374-4 0  9996
2 41850  97.9714  73.4140 0008482   3.9543 356.1744 14.97632291272502
OPTICUBE 04             
1 41851U 16067D   21310.91146699  .00000301  00000-0  31290-4 0  9994
2 41851  97.9712  72.2551 0009201  10.7095 349.4320 14.97235808272409
AEROCUBE 8D             
1 41852U 16067E   21311.30508936  .00001265  00000-0  11401-3 0  9996
2 41852  97.9711  72.5586 0009807   9.9180 350.2233 14.97427803272442
AEROCUBE 8C             
1 41853U 16067F   21311.28145559  .00001572  00000-0  14045-3 0  9990
2 41853  97.9693  72.3846 0009743   9.9480 350.1932 14.97385545272431
PROMETHEUS 2-1          
1 41854U 16067G   21311.30396292  .00002165  00000-0  18845-3 0  9997
2 41854  97.9725  73.1573 0010321   9.7612 350.3808 14.98000581272476
PROMETHEUS 2-3          
1 41855U 16067H   21311.29973945  .00002497  00000-0  21650-3 0  9998
2 41855  97.9725  73.2146 0010400  10.4224 349.7211 14.98016315272472
INS-1B                  
1 41954U 17008G   21310.70618059  .00005587  00000-0  21245-3 0  9994
2 41954  97.2913  10.6356 0007283 316.1541  43.9120 15.27151776262717
BGUSAT                  
1 41999U 17008BD  21310.67087765  .00010767  00000-0  35326-3 0  9994
2 41999  97.3108  18.3842 0005624 315.9099  44.1694 15.31764397262465
DIDO-2                  
1 42000U 17008BE  21310.68653413  .00003233  00000-0  12860-3 0  9996
2 42000  97.2910  10.6536 0007257 340.4946  19.6014 15.25962854262073
PEASSS                  
1 42015U 17008BV  21311.44785691  .00004490  00000-0  16823-3 0  9990
2 42015  97.2956  14.2852 0005112 340.2027  19.9013 15.27764509262842
AL-FARABI 1             
1 42016U 17008BW  21311.43191541  .00005163  00000-0  18447-3 0  9997
2 42016  97.3011  16.4311 0004765 337.1625  22.9402 15.29256631263078
NAYIF-1 (EO-88)         
1 42017U 17008BX  21310.41284258  .00007143  00000-0  25380-3 0  9997
2 42017  97.3008  15.4372 0004916 339.8245  20.2800 15.29306927262948
UCLSAT                  
1 42765U 17036A   21310.36489659  .00005663  00000-0  22438-3 0  9990
2 42765  97.2320 355.3613 0011643  43.4577 316.7577 15.25728554243807
LITUANICASAT-2          
1 42768U 17036D   21311.46632300  .00007839  00000-0  29015-3 0  9993
2 42768  97.2397 357.7374 0013621  26.3993 333.7938 15.27850244243291
AALTO-1                 
1 42775U 17036L   21310.34497556  .00004038  00000-0  17307-3 0  9998
2 42775  97.2299 351.4790 0014390  41.0474 319.1844 15.23216443242796
URSA MAIOR              
1 42776U 17036M   21310.51772562  .00003833  00000-0  16290-3 0  9993
2 42776  97.2311 352.1978 0014098  39.7823 320.4445 15.23540286242848
COMPASS 2               
1 42777U 17036N   21311.37844663  .00005292  00000-0  20264-3 0  9998
2 42777  97.2381 357.6247 0011921  29.5825 330.6086 15.26896807243218
DIAMOND RED             
1 42783U 17036U   21310.38927149  .00004552  00000-0  18738-3 0  9997
2 42783  97.2325 354.0043 0012625  46.9446 313.2847 15.24540482242935
PEGASUS                 
1 42784U 17036V   21310.38709663  .00005114  00000-0  20602-3 0  9995
2 42784  97.2330 354.8266 0012322  44.9941 315.2294 15.25212624242987
DIAMOND GREEN           
1 42785U 17036W   21311.37314713  .00003263  00000-0  13514-3 0  9991
2 42785  97.2327 355.0070 0012419  44.3327 315.8903 15.24535445243071
DIAMOND BLUE            
1 42786U 17036X   21310.38766611  .00004807  00000-0  19777-3 0  9992
2 42786  97.2329 354.0481 0012463  48.0241 312.2057 15.24530413243008
NUDTSAT                 
1 42787U 17036Y   21311.17898835  .00011505  00000-0  42745-3 0  9999
2 42787  97.2373 358.5103 0010996  35.8772 324.3206 15.27645153243113
SUCHAI                  
1 42788U 17036Z   21310.43733080  .00005668  00000-0  22152-3 0  9991
2 42788  97.2338 356.0633 0011702  42.0062 318.2072 15.26188276243136
SKCUBE                  
1 42789U 17036AA  21310.10039215  .00006250  00000-0  24648-3 0  9995
2 42789  97.2335 355.3759 0011672  43.7406 316.4755 15.25844300242987
VZLUSAT-1               
1 42790U 17036AB  21310.12802460  .00008206  00000-0  30642-3 0  9993
2 42790  97.2368 357.4771 0010776  39.2153 320.9865 15.27577982243103
ROBUSTA-1B              
1 42792U 17036AD  21310.37315088  .00005795  00000-0  22681-3 0  9991
2 42792  97.2335 356.0787 0011258  43.1629 317.0490 15.26134909243062
CICERO 6                
1 42793U 17036AE  21310.68019521  .00003742  00000-0  15390-3 0  9998
2 42793  97.2305 354.8751 0010920  47.0938 313.1215 15.24700727243100
D-SAT                   
1 42794U 17036AF  21311.30907035  .00001119  00000-0  10020-3 0  9996
2 42794  97.4568 323.5903 0126642 108.2328 253.2723 14.91760132238390
CORVUS BC2              
1 42846U 17042X   21310.51201953  .00000964  00000-0  99139-4 0  9995
2 42846  97.4492 175.0977 0010335  31.2974 328.8860 14.92412518235029
CORVUS BC1              
1 42847U 17042Y   21310.40639425  .00000583  00000-0  61906-4 0  9991
2 42847  97.4496 175.2626 0010031  31.1421 329.0392 14.92507945235017
MIRATA                  
1 43015U 17073C   21311.28945596  .00002833  00000-0  21799-3 0  9994
2 43015  97.6898 210.0575 0247050 189.3318 170.3263 14.81394615214352
MAKERSAT 0              
1 43016U 17073D   21311.26804780  .00002184  00000-0  17075-3 0  9993
2 43016  97.6928 209.9572 0251473 192.2339 167.2696 14.80453111214295
AEROCUBE 7B (OCSD B)    
1 43042U 17071F   21311.47599744  .00021876  00000-0  36023-3 0  9997
2 43042  51.6365  81.3605 0002437 114.9319 245.1924 15.52256475221013
AEROCUBE 7C (OCSD C)    
1 43043U 17071G   21311.45921730  .00021405  00000-0  35694-3 0  9991
2 43043  51.6354  81.9858 0002674 120.6337 239.4917 15.51917603220973
CHEFSAT                 
1 43044U 17071H   21311.43709513  .00152870  00000-0  90903-3 0  9998
2 43044  51.6292  29.7408 0004921   0.2312 359.8690 15.76981361221671
ASGARDIA 1              
1 43049U 17071N   21310.97204006  .00022320  00000-0  37802-3 0  9993
2 43049  51.6375  84.1403 0001113 149.2328 210.8727 15.51454719220894
ISARA                   
1 43050U 17071P   21310.78500775  .00082113  00000-0  73106-3 0  9999
2 43050  51.6301  45.3995 0002802 338.7751  21.3129 15.67757545221398
PROPCUBE 2 (FAUNA)      
1 43052U 17071R   21311.41677064  .00021652  00000-0  34914-3 0  9993
2 43052  51.6359  77.3452 0000776 150.6769 209.4265 15.52850235221028
CORVUS BC3              
1 43118U 18004H   21310.45786999  .00003687  00000-0  15120-3 0  9990
2 43118  97.3903  21.2066 0011427  73.2363 287.0127 15.24825360212217
MICROMAS-2A             
1 43131U 18004W   21311.47698416  .00007213  00000-0  25998-3 0  9997
2 43131  97.4000  26.5122 0009343  62.7749 297.4442 15.28810543212606
SPACEBEE-4              
1 43139U 18004AE  21311.00133325  .00013202  00000-0  43150-3 0  9992
2 43139  97.4081  29.0740 0008210  61.8602 298.3468 15.31824253212680
SPACEBEE-3              
1 43140U 18004AF  21311.43772014  .00016381  00000-0  49410-3 0  9991
2 43140  97.4117  31.5104 0007350  56.2772 303.9171 15.34345577212879
SPACEBEE-2              
1 43141U 18004AG  21311.44412053  .00017305  00000-0  50709-3 0  9997
2 43141  97.4140  32.2845 0006858  54.1531 306.0348 15.35249404212916
SPACEBEE-1              
1 43142U 18004AH  21311.47071645  .00018715  00000-0  52919-3 0  9990
2 43142  97.4152  33.1000 0006708  51.2969 308.8874 15.36353115212954
CICERO 7                
1 43143U 18004AJ  21311.43821134  .00007120  00000-0  25860-3 0  9996
2 43143  97.3972  26.4318 0007928  72.5187 287.6919 15.28573968212612
GOMX-4B                 
1 43196U 18015E   21311.37220395  .00001953  00000-0  80172-4 0  9997
2 43196  97.5055  84.5469 0019559 115.9039 244.4217 15.25279851209290
GOMX-4A                 
1 43197U 18015F   21311.45419589  .00004284  00000-0  16835-3 0  9996
2 43197  97.5049  85.0157 0019597 116.5593 284.2987 15.26062332209345
AEROCUBE 12A            
1 43556U 18046C   21311.36358178  .00004946  00000-0  16387-3 0  9992
2 43556  51.6386 180.1993 0006630 319.6482  40.4007 15.33072416185194
AEROCUBE 12B            
1 43557U 18046D   21310.67279062  .00006647  00000-0  22154-3 0  9999
2 43557  51.6383 186.0414 0006769 314.5739  45.4690 15.32281082185000
SURFSAT                 
1 43614U 18070B   21311.41750503  .00009735  00000-0  21156-3 0  9999
2 43614  93.0276   5.6440 0014326 157.1318 203.0580 15.44227679176715
CP7 (DAVE)              
1 43615U 18070C   21311.14093089  .00009911  00000-0  21819-3 0  9991
2 43615  93.0282   5.4639 0014476 158.5800 201.6065 15.43840518176655
ELFIN-B                 
1 43616U 18070D   21310.65241912  .00020029  00000-0  38059-3 0  9994
2 43616  93.0233   5.6638 0013952 155.5894 204.6029 15.48104051176744
ELFIN-A                 
1 43617U 18070E   21310.68995096  .00021686  00000-0  40220-3 0  9990
2 43617  93.0288   6.6734 0013442 152.1965 208.0015 15.48801908176770
CUBEBEL-1 (BSUSAT-1)    
1 43666U 18083E   21311.54207056  .00004043  00000-0  19025-3 0  9993
2 43666  97.4440 338.0803 0015204  36.1544 116.3409 15.20027017167749
CICERO 10               
1 43690U 18088A   21310.76954970  .00005136  00000-0  22399-3 0  9994
2 43690  85.0345 103.7275 0012332 243.6711 116.3265 15.21850393165844
